OBJECT_NAME,OBJECT_ID,EPOCH,MEAN_MOTION,ECCENTRICITY,INCLINATION,RA_OF_ASC_NODE,ARG_OF_PERICENTER,MEAN_ANOMALY,EPHEMERIS_TYPE,CLASSIFICATION_TYPE,NORAD_CAT_ID,ELEMENT_SET_NO,REV_AT_EPOCH,BSTAR,MEAN_MOTION_DOT,MEAN_MOTION_DDOT
LEMUR-2-STARLIGHT,2025-276DY,2026-07-18T17:44:52.664352,14.99381177,.0014676,97.5234,269.3007,36.6772,323.5453,0,U,66783,999,3492,.29499E-3,.356E-4,0
LEMUR-2-TARTIFLETTE,2025-276DZ,2026-07-18T17:42:37.900224,14.99363603,.0013874,97.5232,269.3071,45.2874,314.9477,0,U,66784,999,3492,.26962E-3,.3247E-4,0
LEMUR-2-VUKASIN,2025-276EA,2026-07-18T16:55:51.712032,15.00563053,.0002493,97.5209,269.6401,43.6879,316.4542,0,U,66785,999,3487,.17584E-3,.2162E-4,0
LEMUR-2-HOTSPUR-TOM,2025-276EB,2026-07-18T17:34:54.665760,14.99261370,.0013676,97.5212,269.2747,36.9937,323.2227,0,U,66786,999,3485,.22817E-3,.2731E-4,0
LEMUR-2-MYRA,2025-276EC,2026-07-18T17:41:38.457888,15.00611838,.0018628,97.5220,269.5906,43.5226,316.7464,0,U,66787,999,3494,.24269E-3,.3019E-4,0
LEMUR-2 FIKRETDENGIZ,2026-004A,2026-07-18T19:08:44.803392,14.88530422,.0009922,97.8032,197.8762,45.8625,314.3406,0,U,67363,999,2798,.21614E-3,.1956E-4,0
TWILIGHT-1 OBJECT B,2026-004B,2026-07-17T23:05:45.496896,14.87798598,.00095408,97.8076,197.0524,37.8134,322.3751,0,U,67364,999,2786,.99977192E-4,.859E-5,0
LEMUR-2-MARIO-SOUSA,2026-004C,2026-07-18T17:02:13.479072,14.88742836,.0009598,97.8003,197.7845,47.3532,312.8492,0,U,67365,999,2798,.19133E-3,.1735E-4,0
LEMUR-2-SONNENBLUME,2026-004E,2026-07-18T18:44:04.779168,14.88462938,.0009202,97.8002,197.8252,48.2789,311.9213,0,U,67367,999,2799,.13567E-3,.1205E-4,0
LEMUR-2-WOBLER,2026-004F,2026-07-18T05:33:29.983392,14.88710075,.00092888,97.8054,197.4389,41.2949,318.8968,0,U,67368,999,2791,.18669337E-3,.169E-4,0
LEMUR-2-GRAM-E-SUE,2026-004H,2026-07-18T10:12:52.818912,14.88597400,.00083944,97.7987,197.4922,52.3674,307.8304,0,U,67370,999,2794,.13127877E-3,.1168E-4,0
LEMUR-2-KATIE,2026-004AA,2026-07-18T18:45:49.942656,14.90267445,.0003157,97.8048,198.4065,25.2222,334.9149,0,U,67387,999,2801,.19756E-3,.1862E-4,0
LEMUR-2-HCS-BAZUS,2026-004AB,2026-07-18T18:43:25.875840,14.90275793,.0002673,97.8039,198.3827,26.7191,333.4164,0,U,67388,999,2801,.17132E-3,.1608E-4,0
